     2.100          NAVIGATION                              RINEX VERSION / TYPE
fic2rin                                 05/30/2017 00:03:35 PGM / RUN BY / DATE
                                                            END OF HEADER
 4 17  5 29 21 59 44.0 -.187945552170D-04  .227373675443D-12  .000000000000D+00
     .150000000000D+02  .586250000000D+02  .354764777377D-08  .234330267384D+01
     .303797423840D-05  .164142858703D-01  .104811042547D-04  .515364538193D+04
     .165584000000D+06 -.212341547012D-06  .765140469663D+00 -.266358256340D-06
     .986281966168D+00  .187968750000D+03 -.243298176988D+01 -.743566686823D-08
    -.114290474943D-09  .100000000000D+01  .195100000000D+04  .000000000000D+00
     .240000000000D+01  .630000000000D+02 -.512227416039D-08  .150000000000D+02
     .158406000000D+06  .400000000000D+01
32 17  5 29 21 59 44.0 -.426926650107D-03 -.989075488178D-11  .000000000000D+00
     .160000000000D+02 -.228125000000D+01  .472912555849D-08 -.201440716081D+01
    -.428408384323D-07  .123543117661D-02  .641122460365D-05  .515372128296D+04
     .165584000000D+06 -.372529029846D-07 -.434058787948D+00 -.465661287308D-07
     .958141462712D+00  .256468750000D+03 -.258567692385D+01 -.809390857235D-08
    -.208937274505D-09  .100000000000D+01  .195100000000D+04  .000000000000D+00
     .240000000000D+01  .000000000000D+00  .465661287308D-09  .160000000000D+02
     .158406000000D+06  .400000000000D+01
 2 17  5 29 22  0  0.0  .409472268075D-03 -.795807864051D-11  .000000000000D+00
     .590000000000D+02 -.125937500000D+03  .464162191361D-08  .177625594860D+01
    -.679306685925D-05  .167965852888D-01  .921264290810D-05  .515380483818D+04
     .165600000000D+06 -.197440385818D-06 -.256954315375D+01 -.370666384697D-06
     .946574207495D+00  .199875000000D+03 -.197633656985D+01 -.811998108695D-08
    -.105004373854D-09  .100000000000D+01  .195100000000D+04  .000000000000D+00
     .240000000000D+01  .000000000000D+00 -.204890966415D-07  .590000000000D+02
     .158406000000D+06  .400000000000D+01
 3 17  5 29 22  0  0.0 -.978913158178D-04  .204636307899D-11  .000000000000D+00
     .260000000000D+02  .176250000000D+02  .466269421993D-08  .826972939085D+00
     .873580574989D-06  .692813307978D-03  .884570181370D-05  .515372807503D+04
     .165600000000D+06  .372529029846D-08 -.147366161798D+01  .707805156708D-07
     .959433116972D+00  .205218750000D+03  .666387712009D-01 -.803247744207D-08
     .351443210449D-09  .100000000000D+01  .195100000000D+04  .000000000000D+00
     .240000000000D+01  .000000000000D+00  .232830643654D-08  .260000000000D+02
     .158406000000D+06  .400000000000D+01
 5 17  5 29 22  0  0.0 -.437633134425D-04  .170530256582D-11  .000000000000D+00
     .620000000000D+02  .368750000000D+01  .483698719422D-08 -.186726393602D+01
     .223517417908D-06  .498441793025D-02  .924430787563D-05  .515375156212D+04
     .165600000000D+06  .465661287308D-07 -.149054132122D+01 -.484287738800D-07
     .946395526681D+00  .194312500000D+03  .535273294407D+00 -.802354849872D-08
     .405731186047D-09  .100000000000D+01  .195100000000D+04  .000000000000D+00
     .240000000000D+01  .000000000000D+00 -.107102096081D-07  .620000000000D+02
     .158406000000D+06  .400000000000D+01
 6 17  5 29 22  0  0.0  .357454176992D-03  .500222085975D-11  .000000000000D+00
     .230000000000D+02 -.115687500000D+03  .427982112887D-08  .154179708457D+01
    -.600703060627D-05  .788831501268D-03  .998005270958D-05  .515368445587D+04
     .165600000000D+06 -.186264514923D-08 -.252449571776D+01 -.186264514923D-07
     .967396126789D+00  .186187500000D+03 -.108371670485D+01 -.789925760721D-08
    -.131076888450D-09  .100000000000D+01  .195100000000D+04  .000000000000D+00
     .240000000000D+01  .000000000000D+00  .465661287308D-08  .230000000000D+02
     .158406000000D+06  .400000000000D+01
 7 17  5 29 22  0  0.0  .345843378454D-03 -.443378667114D-11  .000000000000D+00
     .280000000000D+02  .539687500000D+02  .426017745349D-08  .841442732027D+00
     .285170972347D-05  .105691649951D-01  .103116035461D-04  .515374258995D+04
     .165600000000D+06 -.782310962677D-07  .640852253109D+00  .147148966789D-06
     .962572163200D+00  .183062500000D+03 -.260227953139D+01 -.792211570220D-08
    -.382515933324D-09  .100000000000D+01  .195100000000D+04  .000000000000D+00
     .240000000000D+01  .000000000000D+00 -.111758708954D-07  .280000000000D+02
     .158406000000D+06  .400000000000D+01
 8 17  5 29 22  0  0.0 -.613834708929D-04 -.125055521494D-11  .000000000000D+00
     .420000000000D+02 -.590625000000D+02  .473162566263D-08 -.215154925294D+01
    -.298768281937D-05  .257800531108D-02  .291876494884D-05  .515363784409D+04
     .165600000000D+06 -.428408384323D-07  .270453767922D+01  .372529029846D-08
     .966955823557D+00  .328406250000D+03 -.666676455465D+00 -.831641784076D-08
    -.650027076237D-10  .100000000000D+01  .195100000000D+04  .000000000000D+00
     .240000000000D+01  .000000000000D+00  .512227416039D-08  .420000000000D+02
     .158406000000D+06  .400000000000D+01
 9 17  5 29 22  0  0.0  .373680610210D-03  .807176547823D-11  .000000000000D+00
     .120000000000D+02  .562500000000D+00  .490556147918D-08 -.266885391518D+01
     .186264514923D-07  .720871496014D-03  .663474202156D-05  .515361709404D+04
     .165600000000D+06  .465661287308D-07 -.437258985615D+00 -.409781932831D-07
     .953645811587D+00  .249562500000D+03  .196000099752D+01 -.815783980677D-08
    -.310727228751D-09  .100000000000D+01  .195100000000D+04  .000000000000D+00
     .240000000000D+01  .000000000000D+00  .139698386192D-08  .120000000000D+02
     .158406000000D+06  .400000000000D+01
10 17  5 29 22  0  0.0 -.404235906899D-04  .106865627458D-10  .000000000000D+00
     .230000000000D+02  .684375000000D+01  .455947563475D-08 -.730657196679D+00
     .175088644028D-06  .252755009569D-02  .893138349056D-05  .515367125511D+04
     .165600000000D+06  .670552253723D-07 -.147737637221D+01 -.279396772385D-07
     .959599209376D+00  .209406250000D+03 -.276848483915D+01 -.799390440678D-08
     .240009997380D-09  .100000000000D+01  .195100000000D+04  .000000000000D+00
     .240000000000D+01  .000000000000D+00  .186264514923D-08  .230000000000D+02
     .158406000000D+06  .400000000000D+01
11 17  5 29 22  0  0.0 -.691598746926D-03 -.272848410532D-11  .000000000000D+00
     .730000000000D+02 -.113125000000D+03  .614061292403D-08  .854125604183D+00
    -.606663525105D-05  .167710478418D-01  .717304646969D-05  .515371441078D+04
     .165600000000D+06 -.312924385071D-06 -.291854159988D+01 -.130385160446D-06
     .901213003368D+00  .215281250000D+03  .164353772806D+01 -.912966600152D-08
    -.157863718515D-09  .100000000000D+01  .195100000000D+04  .000000000000D+00
     .240000000000D+01  .000000000000D+00 -.121071934700D-07  .730000000000D+02
     .158406000000D+06  .400000000000D+01
12 17  5 29 22  0  0.0  .382557511330D-03 -.795807864051D-12  .000000000000D+00
     .380000000000D+02  .931562500000D+02  .403195366134D-08  .242623667301D+00
     .471249222755D-05  .665976456366D-02  .615790486336D-05  .515378191948D+04
     .165600000000D+06 -.167638063431D-07  .172547275314D+01  .596046447754D-07
     .988979708529D+00  .280437500000D+03  .883302457824D+00 -.804533512050D-08
     .293226499775D-09  .100000000000D+01  .195100000000D+04  .000000000000D+00
     .240000000000D+01  .000000000000D+00 -.125728547573D-07  .380000000000D+02
     .158406000000D+06  .400000000000D+01
13 17  5 29 22  0  0.0 -.835470855236D-04 -.136424205266D-11  .000000000000D+00
     .830000000000D+02  .290625000000D+01  .446518599292D-08  .189802404007D+01
     .169500708580D-06  .370376906358D-02  .673346221447D-05  .515367949295D+04
     .165600000000D+06  .143423676491D-06 -.311055715668D+00  .335276126862D-07
     .969795177850D+00  .254093750000D+03  .183855648451D+01 -.792211570220D-08
    -.238938524177D-09  .100000000000D+01  .195100000000D+04  .000000000000D+00
     .240000000000D+01  .000000000000D+00 -.111758708954D-07  .830000000000D+02
     .158406000000D+06  .400000000000D+01
14 17  5 29 22  0  0.0 -.725067220628D-04 -.136424205266D-11  .000000000000D+00
     .930000000000D+02 -.409375000000D+01  .454518932538D-08 -.300610019909D+01
    -.176951289177D-06  .914889189880D-02  .672601163387D-05  .515364914131D+04
     .165600000000D+06  .819563865662D-07 -.350503882454D+00 -.856816768646D-07
     .962287041929D+00  .249656250000D+03 -.196036962801D+01 -.789604318761D-08
    -.245010205659D-09  .100000000000D+01  .195100000000D+04  .000000000000D+00
     .240000000000D+01  .000000000000D+00 -.931322574615D-08  .930000000000D+02
     .158406000000D+06  .400000000000D+01
15 17  5 29 22  0  0.0 -.350798945874D-03 -.682121026330D-12  .000000000000D+00
     .110000000000D+02  .665625000000D+01  .547844248483D-08  .270535794177D+01
     .260770320892D-06  .914330326486D-02  .600144267082D-05  .515379527283D+04
     .165600000000D+06 -.391155481339D-07 -.498884256097D+00 -.121071934700D-06
     .929213669411D+00  .247906250000D+03  .581727067199D+00 -.839499254228D-08
    -.129648257513D-09  .100000000000D+01  .195100000000D+04  .000000000000D+00
     .240000000000D+01  .000000000000D+00 -.107102096081D-07  .110000000000D+02
     .158406000000D+06  .400000000000D+01
16 17  5 29 22  0  0.0  .340892001987D-04  .568434188608D-12  .000000000000D+00
     .450000000000D+02  .868750000000D+02  .396873674239D-08 -.175430480869D+01
     .423192977905D-05  .934178719763D-02  .472739338875D-05  .515370535851D+04
     .165600000000D+06  .689178705215D-07  .174434179237D+01 -.838190317154D-07
     .989455320751D+00  .300656250000D+03  .452753053816D+00 -.790604360416D-08
     .387516141603D-09  .100000000000D+01  .195100000000D+04  .000000000000D+00
     .240000000000D+01  .000000000000D+00 -.107102096081D-07  .450000000000D+02
     .158406000000D+06  .400000000000D+01
